start=new Date('2021-09-21T00:00:00.000Z').valueOf();
sats=[{"OBJECT_NAME":"STARLINK-2569","GP_ID":"185123406","REF_FRAME":"TEME","TIME_SYSTEM":"UTC","CLASSIFICATION_TYPE":"U","DECAY_DATE":null,"RA_OF_ASC_NODE":"169.7801","EPHEMERIS_TYPE":"0","EPOCH":"2021-09-20T22:00:00.999936","LAUNCH_DATE":"2021-04-29","MEAN_MOTION_DDOT":"0.0000000000000","MEAN_MOTION_DOT":"-0.00011583","FILE":"3121356","INCLINATION":"53.0502","OBJECT_ID":"2021-036B","BSTAR":"-0.00007813100000","ECCENTRICITY":"0.00040300","COUNTRY_CODE":"US","SEMIMAJOR_AXIS":"6727.890","PERIAPSIS":"347.043","RCS_SIZE":"LARGE","TLE_LINE2":"2 48277  53.0502 169.7801 0004030  15.0384   6.2976 15.73201924  3697","REV_AT_EPOCH":"369","ARG_OF_PERICENTER":"15.0384","PERIOD":"91.533","MEAN_ELEMENT_THEORY":"SGP4","APOAPSIS":"352.466","TLE_LINE1":"1 48277U 21036B   21263.91667824 -.00011583  00000-0 -78131-4 0  9991","ELEMENT_SET_NO":"999","SITE":"AFETR","MEAN_MOTION":"15.73201924","CENTER_NAME":"EARTH","NORAD_CAT_ID":"48277","OBJECT_TYPE":"PAYLOAD","MEAN_ANOMALY":"6.2976"},{"REV_AT_EPOCH":"366","RCS_SIZE":"LARGE","TLE_LINE2":"2 48278  53.0502 169.7778 0003898  14.7211   7.2555 15.73213191  3667","PERIAPSIS":"347.100","COUNTRY_CODE":"US","SEMIMAJOR_AXIS":"6727.858","NORAD_CAT_ID":"48278","MEAN_ANOMALY":"7.2555","OBJECT_TYPE":"PAYLOAD","CENTER_NAME":"EARTH","MEAN_MOTION":"15.73213191","ELEMENT_SET_NO":"999","SITE":"AFETR","PERIOD":"91.532","ARG_OF_PERICENTER":"14.7211","TLE_LINE1":"1 48278U 21036C   21263.91667824 -.00005913  00000-0 -37659-4 0  9992","MEAN_ELEMENT_THEORY":"SGP4","APOAPSIS":"352.345","CLASSIFICATION_TYPE":"U","TIME_SYSTEM":"UTC","RA_OF_ASC_NODE":"169.7778","DECAY_DATE":null,"REF_FRAME":"TEME","GP_ID":"185123156","OBJECT_NAME":"STARLINK-2543","BSTAR":"-0.00003765900000","ECCENTRICITY":"0.00038980","INCLINATION":"53.0502","OBJECT_ID":"2021-036C","FILE":"3121356","MEAN_MOTION_DOT":"-0.00005913","MEAN_MOTION_DDOT":"0.0000000000000","EPOCH":"2021-09-20T22:00:00.999936","EPHEMERIS_TYPE":"0","LAUNCH_DATE":"2021-04-29"},{"RCS_SIZE":"LARGE","TLE_LINE2":"2 48279  53.0501 169.7759 0003665   6.4861  16.1941 15.73230176  3690","REV_AT_EPOCH":"369","SEMIMAJOR_AXIS":"6727.809","COUNTRY_CODE":"US","PERIAPSIS":"347.208","MEAN_MOTION":"15.73230176","CENTER_NAME":"EARTH","NORAD_CAT_ID":"48279","MEAN_ANOMALY":"16.1941","OBJECT_TYPE":"PAYLOAD","ARG_OF_PERICENTER":"6.4861","PERIOD":"91.531","TLE_LINE1":"1 48279U 21036D   21263.91667824 -.00009345  00000-0 -62089-4 0  9991","MEAN_ELEMENT_THEORY":"SGP4","APOAPSIS":"352.140","SITE":"AFETR","ELEMENT_SET_NO":"999","REF_FRAME":"TEME","CLASSIFICATION_TYPE":"U","TIME_SYSTEM":"UTC","RA_OF_ASC_NODE":"169.7759","DECAY_DATE":null,"OBJECT_NAME":"STARLINK-2580","GP_ID":"185124408","INCLINATION":"53.0501","OBJECT_ID":"2021-036D","FILE":"3121356","BSTAR":"-0.00006208900000","ECCENTRICITY":"0.00036650","EPOCH":"2021-09-20T22:00:00.999936","EPHEMERIS_TYPE":"0","LAUNCH_DATE":"2021-04-29","MEAN_MOTION_DOT":"-0.00009345","MEAN_MOTION_DDOT":"0.0000000000000"},{"REF_FRAME":"TEME","DECAY_DATE":null,"RA_OF_ASC_NODE":"220.2226","TIME_SYSTEM":"UTC","CLASSIFICATION_TYPE":"U","OBJECT_NAME":"STARLINK-2565","GP_ID":"185096471","FILE":"3121163","OBJECT_ID":"2021-036E","INCLINATION":"53.0544","ECCENTRICITY":"0.00015370","BSTAR":"0.00003738600000","LAUNCH_DATE":"2021-04-29","EPHEMERIS_TYPE":"0","EPOCH":"2021-09-20T07:03:55.626048","MEAN_MOTION_DDOT":"0.0000000000000","MEAN_MOTION_DOT":"0.00000275","RCS_SIZE":"LARGE","TLE_LINE2":"2 48280  53.0544 220.2226 0001537  50.6405 309.4720 15.06400304 22212","REV_AT_EPOCH":"2221","SEMIMAJOR_AXIS":"6925.348","COUNTRY_CODE":"US","PERIAPSIS":"546.148","MEAN_MOTION":"15.06400304","CENTER_NAME":"EARTH","OBJECT_TYPE":"PAYLOAD","MEAN_ANOMALY":"309.4720","NORAD_CAT_ID":"48280","APOAPSIS":"548.277","MEAN_ELEMENT_THEORY":"SGP4","TLE_LINE1":"1 48280U 21036E   21263.29439382  .00000275  00000-0  37386-4 0  9993","PERIOD":"95.592","ARG_OF_PERICENTER":"50.6405","SITE":"AFETR","ELEMENT_SET_NO":"999"},{"ECCENTRICITY":"0.00018540","BSTAR":"-0.00148070000000","INCLINATION":"53.0551","OBJECT_ID":"2021-036F","FILE":"3121356","MEAN_MOTION_DOT":"-0.00022279","MEAN_MOTION_DDOT":"0.0000000000000","LAUNCH_DATE":"2021-04-29","EPOCH":"2021-09-20T22:00:00.999936","EPHEMERIS_TYPE":"0","RA_OF_ASC_NODE":"197.4287","DECAY_DATE":null,"CLASSIFICATION_TYPE":"U","TIME_SYSTEM":"UTC","REF_FRAME":"TEME","GP_ID":"185122906","OBJECT_NAME":"STARLINK-2520","MEAN_ANOMALY":"356.2664","OBJECT_TYPE":"PAYLOAD","NORAD_CAT_ID":"48281","MEAN_MOTION":"15.06416866","CENTER_NAME":"EARTH","ELEMENT_SET_NO":"999","SITE":"AFETR","TLE_LINE1":"1 48281U 21036F   21263.91667824 -.00022279  00000-0 -14807-2 0  9998","MEAN_ELEMENT_THEORY":"SGP4","APOAPSIS":"548.446","ARG_OF_PERICENTER":"70.3072","PERIOD":"95.591","REV_AT_EPOCH":"356","TLE_LINE2":"2 48281  53.0551 197.4287 0001854  70.3072 356.2664 15.06416866  3568","RCS_SIZE":"LARGE","PERIAPSIS":"545.878","SEMIMAJOR_AXIS":"6925.297","COUNTRY_CODE":"US"},{"REV_AT_EPOCH":"358","TLE_LINE2":"2 48282  53.0611 202.4146 0001803  70.6962 228.3940 15.06402780  3580","RCS_SIZE":"LARGE","PERIAPSIS":"545.956","COUNTRY_CODE":"US","SEMIMAJOR_AXIS":"6925.340","OBJECT_TYPE":"PAYLOAD","MEAN_ANOMALY":"228.3940","NORAD_CAT_ID":"48282","CENTER_NAME":"EARTH","MEAN_MOTION":"15.06402780","SITE":"AFETR","ELEMENT_SET_NO":"999","MEAN_ELEMENT_THEORY":"SGP4","APOAPSIS":"548.454","TLE_LINE1":"1 48282U 21036G   21263.91667824 -.00016898  00000-0 -11181-2 0  9991","ARG_OF_PERICENTER":"70.6962","PERIOD":"95.592","DECAY_DATE":null,"RA_OF_ASC_NODE":"202.4146","TIME_SYSTEM":"UTC","CLASSIFICATION_TYPE":"U","REF_FRAME":"TEME","GP_ID":"185123657","OBJECT_NAME":"STARLINK-2558","ECCENTRICITY":"0.00018030","BSTAR":"-0.00111810000000","FILE":"3121356","OBJECT_ID":"2021-036G","INCLINATION":"53.0611","MEAN_MOTION_DDOT":"0.0000000000000","MEAN_MOTION_DOT":"-0.00016898","LAUNCH_DATE":"2021-04-29","EPHEMERIS_TYPE":"0","EPOCH":"2021-09-20T22:00:00.999936"},{"REF_FRAME":"TEME","RA_OF_ASC_NODE":"202.4038","DECAY_DATE":null,"CLASSIFICATION_TYPE":"U","TIME_SYSTEM":"UTC","OBJECT_NAME":"STARLINK-2516","GP_ID":"185123908","INCLINATION":"53.0645","OBJECT_ID":"2021-036H","FILE":"3121356","ECCENTRICITY":"0.00019180","BSTAR":"-0.00109510000000","LAUNCH_DATE":"2021-04-29","EPOCH":"2021-09-20T22:00:00.999936","EPHEMERIS_TYPE":"0","MEAN_MOTION_DOT":"-0.00016554","MEAN_MOTION_DDOT":"0.0000000000000","RCS_SIZE":"LARGE","TLE_LINE2":"2 48283  53.0645 202.4038 0001918  74.3475 244.7833 15.06394817  3567","REV_AT_EPOCH":"356","COUNTRY_CODE":"US","SEMIMAJOR_AXIS":"6925.364","PERIAPSIS":"545.901","MEAN_MOTION":"15.06394817","CENTER_NAME":"EARTH","MEAN_ANOMALY":"244.7833","OBJECT_TYPE":"PAYLOAD","NORAD_CAT_ID":"48283","TLE_LINE1":"1 48283U 21036H   21263.91667824 -.00016554  00000-0 -10951-2 0  9995","APOAPSIS":"548.558","MEAN_ELEMENT_THEORY":"SGP4","PERIOD":"95.592","ARG_OF_PERICENTER":"74.3475","SITE":"AFETR","ELEMENT_SET_NO":"999"},{"REF_FRAME":"TEME","TIME_SYSTEM":"UTC","CLASSIFICATION_TYPE":"U","DECAY_DATE":null,"RA_OF_ASC_NODE":"202.4611","OBJECT_NAME":"STARLINK-2564","GP_ID":"185124659","FILE":"3121356","INCLINATION":"53.0498","OBJECT_ID":"2021-036J","BSTAR":"-0.00109180000000","ECCENTRICITY":"0.00020570","EPHEMERIS_TYPE":"0","EPOCH":"2021-09-20T22:00:00.999936","LAUNCH_DATE":"2021-04-29","MEAN_MOTION_DDOT":"0.0000000000000","MEAN_MOTION_DOT":"-0.00016508","TLE_LINE2":"2 48284  53.0498 202.4611 0002057  61.3744 277.7308 15.06402300  3583","RCS_SIZE":"LARGE","REV_AT_EPOCH":"358","SEMIMAJOR_AXIS":"6925.342","COUNTRY_CODE":"US","PERIAPSIS":"545.782","CENTER_NAME":"EARTH","MEAN_MOTION":"15.06402300","NORAD_CAT_ID":"48284","OBJECT_TYPE":"PAYLOAD","MEAN_ANOMALY":"277.7308","ARG_OF_PERICENTER":"61.3744","PERIOD":"95.592","APOAPSIS":"548.631","MEAN_ELEMENT_THEORY":"SGP4","TLE_LINE1":"1 48284U 21036J   21263.91667824 -.00016508  00000-0 -10918-2 0  9998","ELEMENT_SET_NO":"999","SITE":"AFETR"},{"MEAN_ANOMALY":"282.0423","OBJECT_TYPE":"PAYLOAD","NORAD_CAT_ID":"48285","MEAN_MOTION":"15.06416582","CENTER_NAME":"EARTH","ELEMENT_SET_NO":"999","SITE":"AFETR","TLE_LINE1":"1 48285U 21036K   21263.91667824 -.00016581  00000-0 -10963-2 0  9990","APOAPSIS":"548.515","MEAN_ELEMENT_THEORY":"SGP4","ARG_OF_PERICENTER":"77.1054","PERIOD":"95.591","REV_AT_EPOCH":"358","TLE_LINE2":"2 48285  53.0464 202.4720 0001952  77.1054 282.0423 15.06416582  3584","RCS_SIZE":"LARGE","PERIAPSIS":"545.811","COUNTRY_CODE":"US","SEMIMAJOR_AXIS":"6925.298","ECCENTRICITY":"0.00019520","BSTAR":"-0.00109630000000","INCLINATION":"53.0464","OBJECT_ID":"2021-036K","FILE":"3121356","MEAN_MOTION_DOT":"-0.00016581","MEAN_MOTION_DDOT":"0.0000000000000","LAUNCH_DATE":"2021-04-29","EPOCH":"2021-09-20T22:00:00.999936","EPHEMERIS_TYPE":"0","RA_OF_ASC_NODE":"202.4720","DECAY_DATE":null,"CLASSIFICATION_TYPE":"U","TIME_SYSTEM":"UTC","REF_FRAME":"TEME","GP_ID":"185123407","OBJECT_NAME":"STARLINK-2548"},{"MEAN_ANOMALY":"314.8979","OBJECT_TYPE":"PAYLOAD","NORAD_CAT_ID":"48286","CENTER_NAME":"EARTH","MEAN_MOTION":"15.06405089","SITE":"AFETR","ELEMENT_SET_NO":"999","TLE_LINE1":"1 48286U 21036L   21263.91667824 -.00016741  00000-0 -11074-2 0  9993","MEAN_ELEMENT_THEORY":"SGP4","APOAPSIS":"548.530","ARG_OF_PERICENTER":"64.2159","PERIOD":"95.592","REV_AT_EPOCH":"359","TLE_LINE2":"2 48286  53.0533 202.4328 0001924  64.2159 314.8979 15.06405089  3599","RCS_SIZE":"LARGE","PERIAPSIS":"545.866","COUNTRY_CODE":"US","SEMIMAJOR_AXIS":"6925.333","ECCENTRICITY":"0.00019240","BSTAR":"-0.00110740000000","INCLINATION":"53.0533","OBJECT_ID":"2021-036L","FILE":"3121356","MEAN_MOTION_DOT":"-0.00016741","MEAN_MOTION_DDOT":"0.0000000000000","LAUNCH_DATE":"2021-04-29","EPOCH":"2021-09-20T22:00:00.999936","EPHEMERIS_TYPE":"0","RA_OF_ASC_NODE":"202.4328","DECAY_DATE":null,"CLASSIFICATION_TYPE":"U","TIME_SYSTEM":"UTC","REF_FRAME":"TEME","GP_ID":"185123157","OBJECT_NAME":"STARLINK-2547"}];
